RS4S                    
1 53306U 98067TR  22221.49765766  .00037759  00000+0  63830-3 0  9999
2 53306  51.6421  72.4307 0003674 107.1830 252.9562 15.51214784  2934
1998-067TS              
1 53307U 98067TS  22221.49741144  .00037635  00000+0  63583-3 0  9992
2 53307  51.6416  72.4283 0003608  97.5530 262.5869 15.51232573  2964
RS3S                    
1 53308U 98067TT  22221.49716518  .00037002  00000+0  62508-3 0  9994
2 53308  51.6419  72.4273 0003377 100.5178 259.6192 15.51244067  2993
RS1S                    
1 53309U 98067TU  22221.49681247  .00037277  00000+0  62867-3 0  9997
2 53309  51.6417  72.4242 0004045 112.6088 247.5329 15.51285439  2946
RS5S                    
1 53310U 98067TV  22221.49674119  .00035739  00000+0  60367-3 0  9993
2 53310  51.6422  72.4244 0003699 113.7678 246.3700 15.51262976  2971
RS6S                    
1 53311U 98067TW  22221.49607497  .00039832  00000+0  66910-3 0  9997
2 53311  51.6416  72.4194 0003109  95.9312 264.2031 15.51368577  2993
RS9S                    
1 53312U 98067TX  22221.49617325  .00037192  00000+0  62613-3 0  9992
2 53312  51.6420  72.4198 0004252 114.9172 245.2260 15.51335675  2939
RS12S                   
1 53313U 98067TY  22221.49568133  .00038729  00000+0  65055-3 0  9995
2 53313  51.6420  72.4171 0003782 119.0973 241.0396 15.51380604  2984
2022-088A               
1 53316U 22088A   22220.70881249 -.00000121  00000+0 -33684-5 0  9999
2 53316  35.0061  60.8875 0007200 354.0320  73.0098 15.23867044  1542
2022-088B               
1 53317U 22088B   22221.55418144  .00019580  00000+0  77476-3 0  9996
2 53317  35.0079  55.5136 0008976 356.5660  51.2791 15.24545974  1676
2022-088C               
1 53318U 22088C   22221.04741868  .00052082  00000+0  21535-2 0  9991
2 53318  35.0033  58.7201 0006928 324.3271 175.8201 15.22897774  1597
2022-088D               
1 53319U 22088D   22221.21626861  .00010394  00000+0  41045-3 0  9995
2 53319  35.0047  57.6264 0009661   7.3095 352.7785 15.24707985  1622
2022-088E               
1 53320U 22088E   22221.01892987  .00002374  00000+0  10000-3 0  9995
2 53320  35.0048  58.8633 0003881 316.9744  43.1567 15.23017258  1609
COSMOS 2558             
1 53323U 22089A   22220.92050459  .00014425  00000+0  34987-3 0  9998
2 53323  97.2455 319.0308 0010337 239.7257 120.2968 15.41098088  1095
SL-4 R/B                
1 53324U 22089B   22220.59462500  .00090217  44244-5  50540-3 0  9996
2 53324  97.2541 319.0524 0105040  45.6434 315.3375 15.71669603  1065
2022-090A               
1 53346U 22090A   22221.50800037  .00003471  00000+0  15238-3 0  9992
2 53346  97.4721 294.2949 0009753 239.6211 177.9277 15.22583318   828
2022-090B               
1 53347U 22090B   22221.45302653  .00006340  00000+0  26833-3 0  9999
2 53347  97.4725 294.2469 0011367 258.6286 231.6180 15.23483765   802
2022-090C               
1 53348U 22090C   22221.45294431  .00008482  00000+0  35761-3 0  9993
2 53348  97.4713 294.2463 0011017 259.6159 230.5088 15.23512708   801
CZ-4B R/B               
1 53349U 22090D   22221.18113171  .00064891  32582-5  45352-3 0  9994
2 53349  97.5158 294.3056 0158693  11.9219 348.5765 15.59136480   791
SBIRS GEO-6 (USA 336)   
1 53355U 22092A   22218.69424410 -.00000363  00000+0  00000+0 0  9992
2 53355  17.6265 311.1220 5642366 178.5879 176.9105  1.99558016    44
ATLAS 5 CENTAUR R/B     
1 53356U 22092B   22220.71703199 -.00000354  00000+0  00000+0 0  9993
2 53356  16.4924 313.2757 5659041 176.7735 189.7238  1.99531860    82
PRC TEST SPACECRAFT2    
1 53357U 22093A   22221.53993694  .00001710  00000+0  42390-4 0  9996
2 53357  49.9908 140.0175 0180693 168.4585 192.0601 15.32111209   752
CZ-2F R/B               
1 53358U 22093B   22220.82211905  .00009291  00000+0  18351-3 0  9997
2 53358  49.9888 143.6016 0180032 165.2708 195.3594 15.32289426   633
CZ-2F DEB               
1 53359U 22093C   22221.04902458  .00122596  00000+0  23308-2 0  9994
2 53359  50.2976 142.6806 0240850 183.7985 176.1152 15.21707417   674
CZ-2F DEB               
1 53360U 22093D   22221.06068656  .00108431  00000+0  22559-2 0  9990
2 53360  50.3322 142.7384 0251436 178.1670 182.0268 15.17664248   667
CZ-2F DEB               
1 53361U 22093E   22221.19561142  .00099681  00000+0  26847-2 0  9993
2 53361  49.7519 143.0977 0342862 166.5621 194.4737 14.94516876   688
CZ-2F DEB               
1 53362U 22093F   22220.87028533  .00086002  00000+0  23890-2 0  9998
2 53362  49.8052 144.7110 0356182 162.5603 198.7942 14.91262409   632
2022-093G               
1 53363U 22093G   22221.53470280  .00526646  00000+0  66098-2 0  9993
2 53363  50.0302 139.8638 0211428 180.2199 179.8540 15.35845011   757
2022-093H               
1 53364U 22093H   22221.24364054  .00000319  00000+0  43957-4 0  9998
2 53364  50.0285 142.4747 0110719 218.6373 140.6612 15.00010761   686
KPLO                    
1 53365U 22094A   22216.96995833  .00001843 -58274-5  00000+0 0  9991
2 53365  29.5000 147.2458 0003300 140.4700 307.5200 16.09976711    07
2022-095A               
1 53367U 22095A   22221.49803469 -.00000080  00000+0  00000+0 0  9991
2 53367  97.4151 295.4297 0081443  76.2462  23.0492 15.24223974    52
2022-095B               
1 53368U 22095B   22221.49799293 -.00000081  00000+0  00000+0 0  9992
2 53368  97.4147 295.4333 0083853  74.0152  25.2104 15.24258923    43
2022-095C               
1 53369U 22095C   22221.49785258 -.00000080  00000+0  00000+0 0  9998
2 53369  97.4105 295.4306 0080599  75.4483  23.2747 15.24574726    47
2022-095D               
1 53387U 22095D   22221.49814774 -.00000082  00000+0  00000+0 0  9996
2 53387  97.4109 295.4219 0086018  71.9103  29.6009 15.25551199    58
